OBJECT_NAME,OBJECT_ID,EPOCH,MEAN_MOTION,ECCENTRICITY,INCLINATION,RA_OF_ASC_NODE,ARG_OF_PERICENTER,MEAN_ANOMALY,EPHEMERIS_TYPE,CLASSIFICATION_TYPE,NORAD_CAT_ID,ELEMENT_SET_NO,REV_AT_EPOCH,BSTAR,MEAN_MOTION_DOT,MEAN_MOTION_DDOT
STARLINK-32717,2025-003E,2026-06-28T06:16:14.530656,15.27592009,.00011916,42.9994,24.3897,265.3647,94.7069,0,U,62491,999,8358,.39635111E-3,.10664E-3,0
STARLINK-32757,2025-003F,2026-06-28T14:44:01.974336,15.27586308,.0001605,43.0030,22.7286,259.1551,100.9120,0,U,62492,999,8351,.43407239E-3,.11704E-3,0
STARLINK-32731,2025-003G,2026-06-28T15:02:30.456096,15.27646826,.00017464,43.0043,22.8270,256.3565,103.7093,0,U,62493,999,8363,.12699497E-2,.34921E-3,0
STARLINK-32694,2025-003H,2026-06-27T23:44:49.033824,15.27595454,.00014174,43.0005,25.7829,267.6529,92.4160,0,U,62494,999,8354,.69543394E-3,.18933E-3,0
STARLINK-32708,2025-003J,2026-06-28T14:38:29.644512,15.27605547,.00009731,43.0012,22.7022,267.8125,92.2615,0,U,62495,999,8351,.64010849E-3,.17408E-3,0
STARLINK-32718,2025-003K,2026-06-27T23:39:16.034400,15.27594440,.00013507,42.9998,25.7547,269.5187,90.5510,0,U,62496,999,8342,.66958106E-3,.18217E-3,0
STARLINK-32729,2025-003L,2026-06-28T06:06:59.027040,15.27594748,.00017801,42.9981,24.3292,271.7118,88.3530,0,U,62497,999,8358,.51048315E-3,.13818E-3,0
STARLINK-32739,2025-003M,2026-06-28T14:19:58.624320,15.27588880,.00010088,43.0008,22.6053,265.8756,94.1980,0,U,62498,999,8358,.36858839E-3,.9897E-4,0
STARLINK-32714,2025-003N,2026-06-28T13:26:31.793280,15.27585929,.0001436,43.0040,23.1908,264.1953,95.8735,0,U,62499,999,8362,.46170342E-3,.12467E-3,0
STARLINK-32685,2025-003P,2026-06-28T14:49:35.432544,15.27586099,.00010953,43.0032,22.7610,246.9004,113.1732,0,U,62500,999,8358,.66947019E-3,.18209E-3,0
STARLINK-32691,2025-003Q,2026-06-28T14:18:07.212384,15.27572101,.00006209,42.9988,22.5952,276.7766,83.3015,0,U,62501,999,8362,.6316208E-3,.17155E-3,0
STARLINK-32788,2025-003R,2026-06-28T06:21:48.539232,15.27572525,.00007207,42.9998,24.4137,274.6449,85.4320,0,U,62502,999,8346,.54666737E-3,.14808E-3,0
STARLINK-32768,2025-003S,2026-06-27T23:41:06.537408,15.27598606,.00016997,42.9999,25.7574,263.5292,96.5366,0,U,62503,999,8342,.31421659E-3,.8399E-4,0
STARLINK-32792,2025-003T,2026-06-27T23:28:09.643296,15.27593722,.00023175,43.0023,25.6908,268.4790,91.5796,0,U,62504,999,8342,.71882927E-3,.1958E-3,0
STARLINK-32725,2025-003U,2026-06-27T23:30:00.739872,15.27605615,.00015663,43.0023,25.6886,268.3117,91.7555,0,U,62505,999,8342,.98874896E-3,.27067E-3,0
STARLINK-32681,2025-003V,2026-06-28T12:52:41.342304,15.27586666,.00007941,42.9982,4.4171,277.5982,82.4779,0,U,62506,999,8383,.25000967E-3,.6625E-4,0
STARLINK-32679,2025-003W,2026-06-28T07:15:26.845056,15.27588469,.00006052,43.0030,24.6528,262.0142,98.0641,0,U,62507,999,8358,.39017547E-3,.10493E-3,0
STARLINK-32749,2025-003X,2026-06-28T14:03:18.782784,15.27580571,.00006242,42.9976,22.5178,103.8187,256.2734,0,U,62508,999,8351,.70224662E-3,.19113E-3,0
STARLINK-32744,2025-003Y,2026-06-28T07:04:21.010368,15.27593012,.00011404,43.0034,24.6381,268.6206,91.4516,0,U,62509,999,8346,.45481242E-3,.12279E-3,0
STARLINK-32701,2025-003Z,2026-06-28T06:32:53.839104,15.27592904,.00007535,43.0007,24.4704,274.5490,85.5276,0,U,62510,999,8346,.76860107E-3,.20956E-3,0
STARLINK-11452 [DTC],2025-004A,2026-06-28T13:05:53.124864,15.70932164,.00026572,42.9992,122.4960,274.6091,85.4473,0,U,62511,999,8556,.13363682E-2,.175381E-2,0
STARLINK-11443 [DTC],2025-004B,2026-06-28T03:10:50.700864,15.70913752,.00014516,42.9994,125.4366,235.4260,124.6471,0,U,62512,999,8457,.11482279E-2,.150038E-2,0
STARLINK-11440 [DTC],2025-004C,2026-06-28T13:28:49.973664,15.71212660,.00029471,42.9997,122.6256,289.9084,70.1466,0,U,62513,999,8464,.21271594E-2,.286586E-2,0
STARLINK-11514 [DTC],2025-004D,2026-06-28T12:59:33.324288,15.70909447,.00022812,42.9994,122.4613,272.3886,87.6720,0,U,62514,999,8464,.11314096E-2,.147773E-2,0
STARLINK-11508 [DTC],2025-004E,2026-06-28T14:00:01.000224,15.70923152,.00016562,43.0010,122.1207,270.0915,2.9001,0,U,62515,999,582,-.14678155E-2,-.185309E-2,0
STARLINK-11510 [DTC],2025-004F,2026-06-28T13:36:28.179648,15.70896776,.00001492,42.9972,122.6660,21.4261,338.6613,0,U,62516,999,8464,.11541429E-2,.15072E-2,0
STARLINK-11512 [DTC],2025-004G,2026-06-28T06:21:25.313184,15.70881171,.00022816,43.0003,123.8154,268.9097,91.1509,0,U,62517,999,8460,.14008185E-2,.183645E-2,0
STARLINK-11450 [DTC],2025-004H,2026-06-28T13:13:32.124864,15.70912718,.00020025,43.0001,122.5381,265.9877,94.0762,0,U,62518,999,8464,.12599061E-2,.164969E-2,0
STARLINK-11507 [DTC],2025-004J,2026-06-28T13:21:11.084256,15.70855928,.00012007,42.9998,122.5799,267.2746,92.7984,0,U,62519,999,8464,.11842471E-2,.154464E-2,0
STARLINK-11482 [DTC],2025-004K,2026-06-28T03:25:56.816544,15.70898122,.00014732,43.0003,124.6226,261.0877,98.9823,0,U,62520,999,8458,.13843815E-2,.181562E-2,0
