STARLINK-32717          
1 62491U 25003E   26179.26127929  .00010664  00000+0  39635-3 0  9990
2 62491  42.9994  24.3897 0001191 265.3647  94.7069 15.27592009 83588
STARLINK-32757          
1 62492U 25003F   26179.61391174  .00011704  00000+0  43407-3 0  9993
2 62492  43.0030  22.7286 0001605 259.1551 100.9120 15.27586308 83517
STARLINK-32731          
1 62493U 25003G   26179.62674139  .00034921  00000+0  12699-2 0  9994
2 62493  43.0043  22.8270 0001746 256.3565 103.7093 15.27646826 83631
STARLINK-32694          
1 62494U 25003H   26178.98945641  .00018933  00000+0  69543-3 0  9998
2 62494  43.0005  25.7829 0001417 267.6529  92.4160 15.27595454 83541
STARLINK-32708          
1 62495U 25003J   26179.61006533  .00017408  00000+0  64011-3 0  9999
2 62495  43.0012  22.7022 0000973 267.8125  92.2615 15.27605547 83517
STARLINK-32718          
1 62496U 25003K   26178.98560225  .00018217  00000+0  66958-3 0  9993
2 62496  42.9998  25.7547 0001350 269.5187  90.5510 15.27594440 83425
STARLINK-32729          
1 62497U 25003L   26179.25484985  .00013818  00000+0  51048-3 0  9999
2 62497  42.9981  24.3292 0001780 271.7118  88.3530 15.27594748 83581
STARLINK-32739          
1 62498U 25003M   26179.59720630  .00009897  00000+0  36859-3 0  9992
2 62498  43.0008  22.6053 0001008 265.8756  94.1980 15.27588880 83589
STARLINK-32714          
1 62499U 25003N   26179.56009020  .00012467  00000+0  46170-3 0  9997
2 62499  43.0040  23.1908 0001436 264.1953  95.8735 15.27585929 83629
STARLINK-32685          
1 62500U 25003P   26179.61777121  .00018209  00000+0  66947-3 0  9994
2 62500  43.0032  22.7610 0001095 246.9004 113.1732 15.27586099 83589
STARLINK-32691          
1 62501U 25003Q   26179.59591681  .00017155  00000+0  63162-3 0  9992
2 62501  42.9988  22.5952 0000620 276.7766  83.3015 15.27572101 83620
STARLINK-32788          
1 62502U 25003R   26179.26514513  .00014808  00000+0  54667-3 0  9998
2 62502  42.9998  24.4137 0000720 274.6449  85.4320 15.27572525 83468
STARLINK-32768          
1 62503U 25003S   26178.98688122  .00008399  00000+0  31422-3 0  9997
2 62503  42.9999  25.7574 0001699 263.5292  96.5366 15.27598606 83425
STARLINK-32792          
1 62504U 25003T   26178.97788939  .00019580  00000+0  71883-3 0  9993
2 62504  43.0023  25.6908 0002317 268.4790  91.5796 15.27593722 83427
STARLINK-32725          
1 62505U 25003U   26178.97917523  .00027067  00000+0  98875-3 0  9996
2 62505  43.0023  25.6886 0001566 268.3117  91.7555 15.27605615 83420
STARLINK-32681          
1 62506U 25003V   26179.53658961  .00006625  00000+0  25001-3 0  9996
2 62506  42.9982   4.4171 0000794 277.5982  82.4779 15.27586666 83833
STARLINK-32679          
1 62507U 25003W   26179.30239404  .00010493  00000+0  39018-3 0  9990
2 62507  43.0030  24.6528 0000605 262.0142  98.0641 15.27588469 83584
STARLINK-32749          
1 62508U 25003X   26179.58563406  .00019113  00000+0  70225-3 0  9996
2 62508  42.9976  22.5178 0000624 103.8187 256.2734 15.27580571 83512
STARLINK-32744          
1 62509U 25003Y   26179.29468762  .00012279  00000+0  45481-3 0  9996
2 62509  43.0034  24.6381 0001140 268.6206  91.4516 15.27593012 83460
STARLINK-32701          
1 62510U 25003Z   26179.27284536  .00020956  00000+0  76860-3 0  9997
2 62510  43.0007  24.4704 0000753 274.5490  85.5276 15.27592904 83465
STARLINK-11452 [DTC]    
1 62511U 25004A   26179.54575376  .00175381  00000+0  13364-2 0  9996
2 62511  42.9992 122.4960 0002657 274.6091  85.4473 15.70932164 85568
STARLINK-11443 [DTC]    
1 62512U 25004B   26179.13253126  .00150038  00000+0  11482-2 0  9999
2 62512  42.9994 125.4366 0001451 235.4260 124.6471 15.70913752 84574
STARLINK-11440 [DTC]    
1 62513U 25004C   26179.56168951  .00286586  00000+0  21272-2 0  9994
2 62513  42.9997 122.6256 0002947 289.9084  70.1466 15.71212660 84642
STARLINK-11514 [DTC]    
1 62514U 25004D   26179.54135792  .00147773  00000+0  11314-2 0  9990
2 62514  42.9994 122.4613 0002281 272.3886  87.6720 15.70909447 84643
STARLINK-11508 [DTC]    
1 62515U 25004E   26179.58334491 -.00185309  00000+0 -14678-2 0  9997
2 62515  43.0010 122.1207 0001656 270.0915   2.9001 15.70923152  5828
STARLINK-11510 [DTC]    
1 62516U 25004F   26179.56699282  .00150720  00000+0  11541-2 0  9991
2 62516  42.9972 122.6660 0000149  21.4261 338.6613 15.70896776 84646
STARLINK-11512 [DTC]    
1 62517U 25004G   26179.26487631  .00183645  00000+0  14008-2 0  9995
2 62517  43.0003 123.8154 0002281 268.9097  91.1509 15.70881171 84603
STARLINK-11450 [DTC]    
1 62518U 25004H   26179.55106626  .00164969  00000+0  12599-2 0  9991
2 62518  43.0001 122.5381 0002002 265.9877  94.0762 15.70912718 84643
STARLINK-11507 [DTC]    
1 62519U 25004J   26179.55637829  .00154464  00000+0  11842-2 0  9995
2 62519  42.9998 122.5799 0001200 267.2746  92.7984 15.70855928 84649
STARLINK-11482 [DTC]    
1 62520U 25004K   26179.14301871  .00181562  00000+0  13844-2 0  9990
2 62520  43.0003 124.6226 0001473 261.0877  98.9823 15.70898122 84583
